*******************************************************************************
Ephemeris / PORT_LOGIN Sat Mar 13 15:01:33 2021 Pasadena, USA    / Horizons
*******************************************************************************
Target body name: Uranus (799)                    {source: ura111}
Center body name: Earth (399)                     {source: DE431mx}
Center-site name: Greenwich
*******************************************************************************
Start time      : A.D. 2021-Mar-13 00:00:00.0000 TDB
Stop  time      : A.D. 2025-Mar-13 00:00:00.0000 TDB
Step-size       : 1440 minutes
*******************************************************************************
Center geodetic : 0.00000000,51.4773207,0.0670693 {E-lon(deg),Lat(deg),Alt(km)}
Center cylindric: 0.00000000,3980.66470,4966.8438 {E-lon(deg),Dxy(km),Dz(km)}
Center pole/equ : High-precision EOP model        {East-longitude positive}
Center radii    : 6378.1 x 6378.1 x 6356.8 km     {Equator, meridian, pole}    
Output units    : AU-D
Output type     : GEOMETRIC cartesian states
Output format   : 3 (position, velocity, LT, range, range-rate)
EOP file        : eop.210312.p210603
EOP coverage    : DATA-BASED 1962-JAN-20 TO 2021-MAR-12. PREDICTS-> 2021-JUN-02
Reference frame : ICRF
*******************************************************************************
            JDTDB,            Calendar Date (TDB),                      X,                      Y,                      Z,                     VX,                     VY,                     VZ,                     LT,                     RG,                     RR,
**************************************************************************************************************************************************************************************************************************************************************************
$$SOE
2459796.500000000, A.D. 2022-Aug-05 00:00:00.0000,  1.311566700395900E+01,  1.362847592395893E+01,  5.770541179063279E+00, -1.540277062565224E-02, -8.328854526839971E-03, -3.510758535860249E-03,  1.142115463741357E-01,  1.977511624410669E+01, -1.698023801294267E-02,
2459797.500000000, A.D. 2022-Aug-06 00:00:00.0000,  1.310048431360397E+01,  1.362016416930975E+01,  5.766988089514046E+00, -1.520486948762007E-02, -8.524029862137151E-03, -3.594650477250400E-03,  1.141143206608359E-01,  1.975828213369092E+01, -1.700654664884413E-02,
2459798.500000000, A.D. 2022-Aug-07 00:00:00.0000,  1.308549909000846E+01,  1.361166094490219E+01,  5.763351898078763E+00, -1.500380617516088E-02, -8.715963206634755E-03, -3.676924925308077E-03,  1.140169567370613E-01,  1.974142409287323E+01, -1.702827712401000E-02,
2459799.500000000, A.D. 2022-Aug-08 00:00:00.0000,  1.307071459163390E+01,  1.360296941568877E+01,  5.759634200142892E+00, -1.479937648629824E-02, -8.904692044185158E-03, -3.757764454913944E-03,  1.139194811123479E-01,  1.972454671163754E+01, -1.704536146282934E-02,
2459800.500000000, A.D. 2022-Aug-09 00:00:00.0000,  1.305613393694059E+01,  1.359409280466645E+01,  5.755836287145783E+00, -1.459206041711097E-02, -9.090146312595389E-03, -3.837290423018248E-03,  1.138219195463387E-01,  1.970765445012775E+01, -1.705809304273115E-02,
2459801.500000000, A.D. 2022-Aug-10 00:00:00.0000,  1.304175995220684E+01,  1.358503426283147E+01,  5.751959650794854E+00, -1.438177996721994E-02, -9.272507419456915E-03, -3.915241127718226E-03,  1.137242967998725E-01,  1.969075159555021E+01, -1.706645682734278E-02,
2459802.500000000, A.D. 2022-Aug-11 00:00:00.0000,  1.302759564698549E+01,  1.357579682063608E+01,  5.748005730041776E+00, -1.416848330226804E-02, -9.451798349512694E-03, -3.991907399611207E-03,  1.136266378345203E-01,  1.967384246986696E+01, -1.707050732447253E-02,
2459803.500000000, A.D. 2022-Aug-12 00:00:00.0000,  1.301364389914914E+01,  1.356638348994445E+01,  5.743975826815380E+00, -1.395227991345329E-02, -9.628098496455880E-03, -4.067182396122010E-03,  1.135289668714118E-01,  1.965693126683660E+01, -1.707032861174493E-02,
2459804.500000000, A.D. 2022-Aug-13 00:00:00.0000,  1.299990774650768E+01,  1.355679718389014E+01,  5.739871265774734E+00, -1.373291476810651E-02, -9.801433726831307E-03, -4.141309750510822E-03,  1.134313084567792E-01,  1.964002223650748E+01, -1.706582889904418E-02,
2459805.500000000, A.D. 2022-Aug-14 00:00:00.0000,  1.298639017423103E+01,  1.354704089198977E+01,  5.735693099356169E+00, -1.351070547937179E-02, -9.971706125360471E-03, -4.214332567750146E-03,  1.133336868492122E-01,  1.962311957912424E+01, -1.705715140780795E-02,
2459806.500000000, A.D. 2022-Aug-15 00:00:00.0000,  1.297309404390122E+01,  1.353711759429344E+01,  5.731442649246435E+00, -1.328540288016575E-02, -1.013900766945493E-02, -4.285898527945628E-03,  1.132361263208849E-01,  1.960622749728349E+01, -1.704407957859672E-02,
2459807.500000000, A.D. 2022-Aug-16 00:00:00.0000,  1.296002257361112E+01,  1.352703027457616E+01,  5.727121222839777E+00, -1.305686415007450E-02, -1.030318775408976E-02, -4.356319998625020E-03,  1.131386525668366E-01,  1.958935043994342E+01, -1.702649409126216E-02,
2459808.500000000, A.D. 2022-Aug-17 00:00:00.0000,  1.294717882639811E+01,  1.351678208638064E+01,  5.722730028470685E+00, -1.282529911354773E-02, -1.046414459016520E-02, -4.425379040281050E-03,  1.130412912690621E-01,  1.957249285380358E+01, -1.700438749820737E-02,
2459809.500000000, A.D. 2022-Aug-18 00:00:00.0000,  1.293456591988939E+01,  1.350637622322040E+01,  5.718270513468153E+00, -1.259047068807773E-02, -1.062182383842906E-02, -4.493023625074769E-03,  1.129440689516257E-01,  1.955565933136330E+01, -1.697753785243537E-02,
2459810.500000000, A.D. 2022-Aug-19 00:00:00.0000,  1.292218699331933E+01,  1.349581601773892E+01,  5.713744037388566E+00, -1.235261580850132E-02, -1.077605977515031E-02, -4.559234644057498E-03,  1.128470126988181E-01,  1.953885456212219E+01, -1.694596938451486E-02,
2459811.500000000, A.D. 2022-Aug-20 00:00:00.0000,  1.291004510671167E+01,  1.348510486585144E+01,  5.709152207456944E+00, -1.211151036250756E-02, -1.092686100289782E-02, -4.623768025829027E-03,  1.127501500344593E-01,  1.952208331168194E+01, -1.690945590847538E-02,
2459812.500000000, A.D. 2022-Aug-21 00:00:00.0000,  1.289814356127049E+01,  1.347424624402650E+01,  5.704496528678338E+00, -1.186716077121463E-02, -1.107402115992904E-02, -4.686988932837967E-03,  1.126535096240070E-01,  1.950535054331270E+01, -1.686795336894762E-02,
2459813.500000000, A.D. 2022-Aug-22 00:00:00.0000,  1.288648532107194E+01,  1.346324383736884E+01,  5.699778382456202E+00, -1.161997002996911E-02, -1.121742948329674E-02, -4.748623877080463E-03,  1.125571195409163E-01,  1.948866111778251E+01, -1.682155912734695E-02,
2459814.500000000, A.D. 2022-Aug-23 00:00:00.0000,  1.287507331689056E+01,  1.345210134442313E+01,  5.694999462979678E+00, -1.136970986189227E-02, -1.135706946135384E-02, -4.808593060761737E-03,  1.124610083857897E-01,  1.947201998713222E+01, -1.677007483291107E-02,
2459815.500000000, A.D. 2022-Aug-24 00:00:00.0000,  1.286391051336331E+01,  1.344082258009508E+01,  5.690161339525686E+00, -1.111661928592158E-02, -1.149276991159271E-02, -4.867004039806652E-03,  1.123652052141862E-01,  1.945543218217590E+01, -1.671355908327361E-02,
2459816.500000000, A.D. 2022-Aug-25 00:00:00.0000,  1.285299966204240E+01,  1.342941145369891E+01,  5.685265721503115E+00, -1.086068741021767E-02, -1.162451802063690E-02, -4.923604686319766E-03,  1.122697389536062E-01,  1.943890271155499E+01, -1.665190946298114E-02,
2459817.500000000, A.D. 2022-Aug-26 00:00:00.0000,  1.284234360066021E+01,  1.341787194201664E+01,  5.680314302880324E+00, -1.060201637184210E-02, -1.175214653403073E-02, -4.978623503195580E-03,  1.121746391758233E-01,  1.942243669546338E+01, -1.658513222048800E-02,
2459818.500000000, A.D. 2022-Aug-27 00:00:00.0000,  1.283194483493920E+01,  1.340620817384376E+01,  5.675308782807960E+00, -1.034092928237472E-02, -1.187559970615483E-02, -5.031729734721910E-03,  1.120799348716828E-01,  1.940603915351031E+01, -1.651329327765504E-02,
2459819.500000000, A.D. 2022-Aug-28 00:00:00.0000,  1.282180591172809E+01,  1.339442425208506E+01,  5.670251178496789E+00, -1.007710743599806E-02, -1.199488936560067E-02, -5.082891481281228E-03,  1.119856556940678E-01,  1.938971521993333E+01, -1.643616837651934E-02,
2459820.500000000, A.D. 2022-Aug-29 00:00:00.0000,  1.281192942574966E+01,  1.338252440353292E+01,  5.665143245968300E+00, -9.810905203697569E-03, -1.210980898837921E-02, -5.132361127701926E-03,  1.118918316022468E-01,  1.937347008201898E+01, -1.635391073559565E-02,
2459821.500000000, A.D. 2022-Aug-30 00:00:00.0000,  1.280231759583099E+01,  1.337051296594833E+01,  5.659986822157362E+00, -9.542491578800223E-03, -1.222035621623061E-02, -5.179866601097482E-03,  1.117984917688097E-01,  1.935730879084464E+01, -1.626653886601389E-02,
2459822.500000000, A.D. 2022-Aug-31 00:00:00.0000,  1.279297263036557E+01,  1.335839429256350E+01,  5.654783812674158E+00, -9.271940416078739E-03, -1.232644426320754E-02, -5.225576975989510E-03,  1.117056655726058E-01,  1.934123643320037E+01, -1.617407924475977E-02,
2459823.500000000, A.D. 2022-Sep-01 00:00:00.0000,  1.278389642314163E+01,  1.334617283160598E+01,  5.649536079873028E+00, -8.999609271098587E-03, -1.242805498821525E-02, -5.269258094051565E-03,  1.116133815637897E-01,  1.932525795239220E+01, -1.607667577249294E-02,
2459824.500000000, A.D. 2022-Sep-02 00:00:00.0000,  1.277509082244550E+01,  1.333385297362893E+01,  5.644245697159890E+00, -8.725342135861038E-03, -1.252523050637758E-02, -5.310959706882242E-03,  1.115216683106128E-01,  1.930937829485952E+01, -1.597425753634237E-02,
2459825.500000000, A.D. 2022-Sep-03 00:00:00.0000,  1.276655757504209E+01,  1.332143917157368E+01,  5.638914482688394E+00, -8.449594736328368E-03, -1.261785485318752E-02, -5.350887452247095E-03,  1.114305538755569E-01,  1.929360231947044E+01, -1.586709497118453E-02,
